[{"OBJECT_NAME":"MOHAMMED VI-A","OBJECT_ID":"2017-070A","EPOCH":"2026-03-09T23:14:54.770208","MEAN_MOTION":14.771271,"ECCENTRICITY":0.00014633,"INCLINATION":97.9427,"RA_OF_ASC_NODE":142.7067,"ARG_OF_PERICENTER":97.7701,"MEAN_ANOMALY":262.3676,"EPHEMERIS_TYPE":0,"CLASSIFICATION_TYPE":"U","NORAD_CAT_ID":43005,"ELEMENT_SET_NO":999,"REV_AT_EPOCH":44933,"BSTAR":0.00019951362,"MEAN_MOTION_DOT":1.36e-5,"MEAN_MOTION_DDOT":0},{"OBJECT_NAME":"FENGYUN 1C DEB","OBJECT_ID":"1999-025MH","EPOCH":"2026-03-09T21:46:02.158752","MEAN_MOTION":14.69020874,"ECCENTRICITY":0.00369439,"INCLINATION":99.3767,"RA_OF_ASC_NODE":42.7498,"ARG_OF_PERICENTER":290.3905,"MEAN_ANOMALY":124.1845,"EPHEMERIS_TYPE":0,"CLASSIFICATION_TYPE":"U","NORAD_CAT_ID":30008,"ELEMENT_SET_NO":999,"REV_AT_EPOCH":339,"BSTAR":0.0021532396,"MEAN_MOTION_DOT":0.00012718,"MEAN_MOTION_DDOT":0}]
